[{"OBJECT_NAME":"YUNYAO-1 18","OBJECT_ID":"2024-009A","EPOCH":"2026-03-09T23:31:57.952704","MEAN_MOTION":15.20880734,"ECCENTRICITY":0.00048808,"INCLINATION":49.9885,"RA_OF_ASC_NODE":282.3937,"ARG_OF_PERICENTER":244.6654,"MEAN_ANOMALY":115.3794,"EPHEMERIS_TYPE":0,"CLASSIFICATION_TYPE":"U","NORAD_CAT_ID":58758,"ELEMENT_SET_NO":999,"REV_AT_EPOCH":11973,"BSTAR":0.00063747175,"MEAN_MOTION_DOT":0.00014001,"MEAN_MOTION_DDOT":0},{"OBJECT_NAME":"LUNA-1","OBJECT_ID":"2025-276DR","EPOCH":"2026-03-09T16:52:45.597792","MEAN_MOTION":15.20784486,"ECCENTRICITY":0.00020745,"INCLINATION":97.4326,"RA_OF_ASC_NODE":144.29,"ARG_OF_PERICENTER":174.5439,"MEAN_ANOMALY":185.582,"EPHEMERIS_TYPE":0,"CLASSIFICATION_TYPE":"U","NORAD_CAT_ID":66777,"ELEMENT_SET_NO":999,"REV_AT_EPOCH":1533,"BSTAR":0.00042338714,"MEAN_MOTION_DOT":9.266e-5,"MEAN_MOTION_DDOT":0}]
